NORAD_CAT_ID,OBJECT_NAME,OBJECT_TYPE,EPOCH,MEAN_MOTION,ECCENTRICITY,INCLINATION,RA_OF_ASC_NODE,ARG_OF_PERICENTER,MEAN_ANOMALY,BSTAR,MEAN_MOTION_DOT,MEAN_MOTION_DDOT,TLE_LINE0,TLE_LINE1,TLE_LINE2,SEMIMAJOR_AXIS,PERIOD,APOGEE,PERIGEE,DECAYED
55742.0,STARLINK-5594,PAYLOAD,2023-06-23 13:15:32,14.98334265,0.0003844,69.9984,221.0849,271.666,88.4058,3.1911e-05,2.88e-06,0.0,0 STARLINK-5594,1 55742U 23028B   23174.55245527  .00000288  00000-0  31911-4 0  9997,2 55742  69.9984 221.0849 0003844 271.6660  88.4058 14.98334265 17728,6950.18,96.107,574.716,569.373,0.0
55742.0,STARLINK-5594,PAYLOAD,2023-06-24 13:17:33,14.98332678,0.0003739,69.9985,218.5602,269.2713,90.8018,2.1985e-05,1.69e-06,0.0,0 STARLINK-5594,1 55742U 23028B   23175.55385516  .00000169  00000-0  21985-4 0  9999,2 55742  69.9985 218.5602 0003739 269.2713  90.8018 14.98332678 17877,6950.185,96.107,574.648,569.451,0.0
55742.0,STARLINK-5594,PAYLOAD,2023-06-26 02:08:38,14.98329457,0.0003647,69.9985,214.689,268.515,91.5591,-2.5553e-06,-1.24e-06,0.0,0 STARLINK-5594,1 55742U 23028B   23177.08933696 -.00000124  00000-0 -25553-5 0  9996,2 55742  69.9985 214.6890 0003647 268.5150  91.5591 14.98329457 18100,6950.195,96.107,574.594,569.525,0.0
55742.0,STARLINK-5594,PAYLOAD,2023-06-27 10:11:20,14.98329525,0.0003777,69.9983,211.3226,268.2658,91.8068,2.084e-06,-6.8e-07,0.0,0 STARLINK-5594,1 55742U 23028B   23178.42453736 -.00000068  00000-0  20840-5 0  9997,2 55742  69.9983 211.3226 0003777 268.2658  91.8068 14.98329525 18309,6950.194,96.107,574.684,569.434,0.0
55742.0,STARLINK-5594,PAYLOAD,2023-06-28 10:13:20,14.98329535,0.0003852,69.9982,208.7971,267.9068,92.165,2.4605e-05,2e-06,0.0,0 STARLINK-5594,1 55742U 23028B   23179.42593700  .00000200  00000-0  24605-4 0  9993,2 55742  69.9982 208.7971 0003852 267.9068  92.1650 14.98329535 18458,6950.194,96.107,574.737,569.382,0.0
55742.0,STARLINK-5594,PAYLOAD,2023-06-29 10:15:21,14.98330847,0.0003863,69.9981,206.2722,267.8155,92.2561,2.0678e-05,1.54e-06,0.0,0 STARLINK-5594,1 55742U 23028B   23180.42733612  .00000154  00000-0  20678-4 0  9997,2 55742  69.9981 206.2722 0003863 267.8155  92.2561 14.98330847 18609,6950.19,96.107,574.74,569.37,0.0
55742.0,STARLINK-5594,PAYLOAD,2023-06-30 11:53:30,14.98334913,0.0003871,69.9981,203.5791,268.0639,92.0077,4.5871e-05,4.54e-06,0.0,0 STARLINK-5594,1 55742U 23028B   23181.49549062  .00000454  00000-0  45871-4 0  9994,2 55742  69.9981 203.5791 0003871 268.0639  92.0077 14.98334913 18769,6950.178,96.107,574.733,569.352,0.0
55742.0,STARLINK-5594,PAYLOAD,2023-07-01 02:18:43,14.98328215,0.0003812,69.9982,202.0642,267.9926,92.0796,-3.585e-05,-5.21e-06,0.0,0 STARLINK-5594,1 55742U 23028B   23182.09633637 -.00000521  00000-0 -35850-4 0  9996,2 55742  69.9982 202.0642 0003812 267.9926  92.0796 14.98328215 18857,6950.198,96.107,574.713,569.414,0.0
55742.0,STARLINK-5594,PAYLOAD,2023-07-02 02:20:44,14.98331842,0.0003822,69.9984,199.5395,266.6635,93.4087,-3.3411e-05,-4.92e-06,0.0,0 STARLINK-5594,1 55742U 23028B   23183.09773429 -.00000492  00000-0 -33411-4 0  9999,2 55742  69.9984 199.5395 0003822 266.6635  93.4087 14.98331842 19004,6950.187,96.107,574.709,569.396,0.0
55742.0,STARLINK-5594,PAYLOAD,2023-07-03 02:22:45,14.98328064,0.0003926,69.9983,197.0144,267.405,92.666,5.0129e-05,5.05e-06,0.0,0 STARLINK-5594,1 55742U 23028B   23184.09913394  .00000505  00000-0  50129-4 0  9995,2 55742  69.9983 197.0144 0003926 267.4050  92.6660 14.98328064 19159,6950.199,96.107,574.793,569.335,0.0
55742.0,STARLINK-5594,PAYLOAD,2023-07-04 02:24:46,14.98330361,0.000391,69.9984,194.4895,267.1937,92.8774,2.4291e-05,1.97e-06,0.0,0 STARLINK-5594,1 55742U 23028B   23185.10053321  .00000197  00000-0  24291-4 0  9991,2 55742  69.9984 194.4895 0003910 267.1937  92.8774 14.98330361 19306,6950.192,96.107,574.774,569.339,0.0
55742.0,STARLINK-5594,PAYLOAD,2023-07-05 08:51:19,14.98330229,0.0003907,69.9989,191.2915,267.1341,92.9371,-1.5063e-05,-2.73e-06,0.0,0 STARLINK-5594,1 55742U 23028B   23186.36897350 -.00000273  00000-0 -15063-4 0  9992,2 55742  69.9989 191.2915 0003907 267.1341  92.9371 14.98330229 19491,6950.192,96.107,574.773,569.342,0.0
55742.0,STARLINK-5594,PAYLOAD,2023-07-06 10:29:28,14.98332635,0.0003909,69.9991,188.5984,267.2093,92.8619,1.4259e-05,7.7e-07,0.0,0 STARLINK-5594,1 55742U 23028B   23187.43712988  .00000077  00000-0  14259-4 0  9990,2 55742  69.9991 188.5984 0003909 267.2093  92.8619 14.98332635 19651,6950.185,96.107,574.767,569.333,0.0
55742.0,STARLINK-5594,PAYLOAD,2023-07-07 10:31:29,14.98329837,0.0003779,69.999,186.0735,265.4916,94.5812,9.811e-06,2.4e-07,0.0,0 STARLINK-5594,1 55742U 23028B   23188.43853107  .00000024  00000-0  98110-5 0  9991,2 55742  69.9990 186.0735 0003779 265.4916  94.5812 14.98329837 19807,6950.193,96.107,574.685,569.432,0.0
55742.0,STARLINK-5594,PAYLOAD,2023-07-07 16:56:02,14.9829369,0.0003746,69.999,185.4003,271.0481,89.0249,0.0006226,7.337e-05,0.0,0 STARLINK-5594,1 55742U 23028B   23188.70558155  .00007337  00000-0  62260-3 0  9995,2 55742  69.9990 185.4003 0003746 271.0481  89.0249 14.98293690 19846,6950.305,96.109,574.774,569.567,0.0
55742.0,STARLINK-5594,PAYLOAD,2023-07-08 07:21:13,14.98329858,0.0003914,69.999,183.8856,267.0533,93.0178,-1.8876e-05,-3.18e-06,0.0,0 STARLINK-5594,1 55742U 23028B   23189.30641172 -.00000318  00000-0 -18876-4 0  9993,2 55742  69.9990 183.8856 0003914 267.0533  93.0178 14.98329858 19936,6950.193,96.107,574.779,569.338,0.0
55742.0,STARLINK-5594,PAYLOAD,2023-07-09 08:59:22,14.98329681,0.0003822,69.9992,181.1927,267.1405,92.9317,3.2612e-05,2.96e-06,0.0,0 STARLINK-5594,1 55742U 23028B   23190.37457055  .00000296  00000-0  32612-4 0  9994,2 55742  69.9992 181.1927 0003822 267.1405  92.9317 14.98329681 20091,6950.194,96.107,574.715,569.403,0.0
55742.0,STARLINK-5594,PAYLOAD,2023-07-10 09:01:23,14.98328445,0.0003827,69.9993,178.6681,266.5062,93.5659,1.2212e-05,5.3e-07,0.0,0 STARLINK-5594,1 55742U 23028B   23191.37597214  .00000053  00000-0  12212-4 0  9992,2 55742  69.9993 178.6681 0003827 266.5062  93.5659 14.98328445 20247,6950.198,96.107,574.723,569.403,0.0
55742.0,STARLINK-5594,PAYLOAD,2023-07-11 09:03:24,14.9833234,0.0003848,69.9993,176.1429,266.6706,93.4012,2.3974e-05,1.93e-06,0.0,0 STARLINK-5594,1 55742U 23028B   23192.37736900  .00000193  00000-0  23974-4 0  9992,2 55742  69.9993 176.1429 0003848 266.6706  93.4012 14.98332340 20396,6950.186,96.107,574.725,569.376,0.0
55742.0,STARLINK-5594,PAYLOAD,2023-07-12 15:29:57,14.98333328,0.0003837,69.9994,172.945,266.575,93.497,3.6285e-05,3.4e-06,0.0,0 STARLINK-5594,1 55742U 23028B   23193.64580548  .00000340  00000-0  36285-4 0  9991,2 55742  69.9994 172.9450 0003837 266.5750  93.4970 14.98333328 20582,6950.183,96.107,574.714,569.381,0.0
55742.0,STARLINK-5594,PAYLOAD,2023-07-13 09:07:26,14.98330554,0.0003706,69.9997,171.0938,266.2901,93.7834,-1.7871e-06,-1.14e-06,0.0,0 STARLINK-5594,1 55742U 23028B   23194.38016801 -.00000114  00000-0 -17871-5 0  9991,2 55742  69.9997 171.0938 0003706 266.2901  93.7834 14.98330554 20698,6950.191,96.107,574.632,569.48,0.0
55742.0,STARLINK-5594,PAYLOAD,2023-07-15 01:10:47,14.98330617,0.0003682,69.9998,166.8856,266.2901,93.7837,5.1249e-05,5.18e-06,0.0,0 STARLINK-5594,1 55742U 23028B   23196.04916583  .00000518  00000-0  51249-4 0  9994,2 55742  69.9998 166.8856 0003682 266.2901  93.7837 14.98330617 20944,6950.191,96.107,574.615,569.497,0.0
55742.0,STARLINK-5594,PAYLOAD,2023-07-16 01:12:49,14.98325066,0.0003684,69.9996,164.3609,267.1145,92.9593,-2.3822e-05,-3.77e-06,0.0,0 STARLINK-5594,1 55742U 23028B   23197.05057110 -.00000377  00000-0 -23822-4 0  9999,2 55742  69.9996 164.3609 0003684 267.1145  92.9593 14.98325066 21092,6950.208,96.107,574.634,569.513,0.0
55742.0,STARLINK-5594,PAYLOAD,2023-07-16 22:02:33,14.98332724,0.0003596,69.9999,162.1726,267.2788,92.7959,-2.7415e-05,-4.2e-06,0.0,0 STARLINK-5594,1 55742U 23028B   23197.91844772 -.00000420  00000-0 -27415-4 0  9993,2 55742  69.9999 162.1726 0003596 267.2788  92.7959 14.98332724 21225,6950.184,96.107,574.549,569.55,0.0
55742.0,STARLINK-5594,PAYLOAD,2023-07-17 23:40:42,14.98327887,0.0003579,69.9999,159.4799,268.3029,91.772,5.3588e-05,5.46e-06,0.0,0 STARLINK-5594,1 55742U 23028B   23198.98660686  .00000546  00000-0  53588-4 0  9998,2 55742  69.9999 159.4799 0003579 268.3029  91.7720 14.98327887 21381,6950.199,96.107,574.552,569.577,0.0
55742.0,STARLINK-5594,PAYLOAD,2023-07-18 07:41:22,14.98349502,0.0003054,69.9999,158.6383,260.9962,99.0851,-0.00016305,-2.039e-05,0.0,0 STARLINK-5594,1 55742U 23028B   23199.32039784 -.00002039  00000-0 -16305-3 0  9992,2 55742  69.9999 158.6383 0003054 260.9962  99.0851 14.98349502 21433,6950.133,96.106,574.12,569.875,0.0
55742.0,STARLINK-5594,PAYLOAD,2023-07-18 20:30:27,14.98327089,0.0003496,70.0005,157.2932,267.3345,92.7414,6.0522e-05,6.29e-06,0.0,0 STARLINK-5594,1 55742U 23028B   23199.85448592  .00000629  00000-0  60522-4 0  9993,2 55742  70.0005 157.2932 0003496 267.3345  92.7414 14.98327089 21515,6950.202,96.107,574.497,569.637,0.0
55742.0,STARLINK-5594,PAYLOAD,2023-07-19 06:07:15,14.98357867,0.0003498,70.0005,156.2833,262.9939,97.0823,-0.00049889,-6.045e-05,0.0,0 STARLINK-5594,1 55742U 23028B   23200.25504027 -.00006045  00000-0 -49889-3 0  9998,2 55742  70.0005 156.2833 0003498 262.9939  97.0823 14.98357867 21571,6950.107,96.105,574.403,569.541,0.0
55742.0,STARLINK-5594,PAYLOAD,2023-07-19 20:32:28,14.9832932,0.0003109,70.0009,154.7681,263.1138,96.9667,-3.8186e-05,-5.49e-06,0.0,0 STARLINK-5594,1 55742U 23028B   23200.85588772 -.00000549  00000-0 -38186-4 0  9995,2 55742  70.0009 154.7681 0003109 263.1138  96.9667 14.98329320 21669,6950.195,96.107,574.221,569.899,0.0
55742.0,STARLINK-5594,PAYLOAD,2023-07-20 23:46:45,14.98327958,0.0003389,70.0002,151.9062,268.8887,91.1883,1.2203e-06,-7.8e-07,0.0,0 STARLINK-5594,1 55742U 23028B   23201.99080867 -.00000078  00000-0  12203-5 0  9992,2 55742  70.0002 151.9062 0003389 268.8887  91.1883 14.98327958 21838,6950.199,96.107,574.42,569.709,0.0
